CCSDS_OMM_VERS = 2.0
CREATION_DATE  = 
ORIGINATOR     = 

OBJECT_NAME    = KUIPER-00262
OBJECT_ID      = 2026-030AA
CENTER_NAME    = EARTH
REF_FRAME      = TEME
TIME_SYSTEM    = UTC
MEAN_ELEMENT_THEORY = SGP/SGP4

EPOCH          = 2026-03-02T00:09:24.451200
MEAN_MOTION    = 15.36382828
ECCENTRICITY   = .0000919
INCLINATION    = 51.8805
RA_OF_ASC_NODE = 256.0762
ARG_OF_PERICENTER = 148.8992
MEAN_ANOMALY   = 211.2049

EPHEMERIS_TYPE = 0
CLASSIFICATION_TYPE = U
NORAD_CAT_ID   = 67788
ELEMENT_SET_NO = 999
REV_AT_EPOCH   = 391
BSTAR          = .79964E-3
MEAN_MOTION_DOT = .28537E-3
MEAN_MOTION_DDOT = 0

CCSDS_OMM_VERS = 2.0
CREATION_DATE  = 
ORIGINATOR     = 

OBJECT_NAME    = KUIPER-00266
OBJECT_ID      = 2026-030AB
CENTER_NAME    = EARTH
REF_FRAME      = TEME
TIME_SYSTEM    = UTC
MEAN_ELEMENT_THEORY = SGP/SGP4

EPOCH          = 2026-03-02T01:24:33.840000
MEAN_MOTION    = 15.30986286
ECCENTRICITY   = .0023075
INCLINATION    = 51.8815
RA_OF_ASC_NODE = 256.4056
ARG_OF_PERICENTER = 50.7411
MEAN_ANOMALY   = 309.5616

EPHEMERIS_TYPE = 0
CLASSIFICATION_TYPE = U
NORAD_CAT_ID   = 67789
ELEMENT_SET_NO = 999
REV_AT_EPOCH   = 391
BSTAR          = .97611E-4
MEAN_MOTION_DOT = .2611E-4
MEAN_MOTION_DDOT = 0

CCSDS_OMM_VERS = 2.0
CREATION_DATE  = 
ORIGINATOR     = 

OBJECT_NAME    = KUIPER-00268
OBJECT_ID      = 2026-030AC
CENTER_NAME    = EARTH
REF_FRAME      = TEME
TIME_SYSTEM    = UTC
MEAN_ELEMENT_THEORY = SGP/SGP4

EPOCH          = 2026-03-02T00:19:26.374944
MEAN_MOTION    = 15.35623464
ECCENTRICITY   = .0002118
INCLINATION    = 51.8835
RA_OF_ASC_NODE = 256.1262
ARG_OF_PERICENTER = 33.0347
MEAN_ANOMALY   = 327.0771

EPHEMERIS_TYPE = 0
CLASSIFICATION_TYPE = U
NORAD_CAT_ID   = 67790
ELEMENT_SET_NO = 999
REV_AT_EPOCH   = 391
BSTAR          = .74979E-3
MEAN_MOTION_DOT = .26076E-3
MEAN_MOTION_DDOT = 0

CCSDS_OMM_VERS = 2.0
CREATION_DATE  = 
ORIGINATOR     = 

OBJECT_NAME    = KUIPER-00270
OBJECT_ID      = 2026-030AD
CENTER_NAME    = EARTH
REF_FRAME      = TEME
TIME_SYSTEM    = UTC
MEAN_ELEMENT_THEORY = SGP/SGP4

EPOCH          = 2026-03-02T00:42:23.494176
MEAN_MOTION    = 15.34287069
ECCENTRICITY   = .0010008
INCLINATION    = 51.8794
RA_OF_ASC_NODE = 256.2228
ARG_OF_PERICENTER = 34.5602
MEAN_ANOMALY   = 325.6032

EPHEMERIS_TYPE = 0
CLASSIFICATION_TYPE = U
NORAD_CAT_ID   = 67791
ELEMENT_SET_NO = 999
REV_AT_EPOCH   = 391
BSTAR          = .96862E-3
MEAN_MOTION_DOT = .32448E-3
MEAN_MOTION_DDOT = 0

CCSDS_OMM_VERS = 2.0
CREATION_DATE  = 
ORIGINATOR     = 

OBJECT_NAME    = KUIPER-00274
OBJECT_ID      = 2026-030AE
CENTER_NAME    = EARTH
REF_FRAME      = TEME
TIME_SYSTEM    = UTC
MEAN_ELEMENT_THEORY = SGP/SGP4

EPOCH          = 2026-03-02T01:10:57.608832
MEAN_MOTION    = 15.31699383
ECCENTRICITY   = .0017225
INCLINATION    = 51.8821
RA_OF_ASC_NODE = 256.3537
ARG_OF_PERICENTER = 47.6812
MEAN_ANOMALY   = 312.5629

EPHEMERIS_TYPE = 0
CLASSIFICATION_TYPE = U
NORAD_CAT_ID   = 67792
ELEMENT_SET_NO = 999
REV_AT_EPOCH   = 391
BSTAR          = .65469E-3
MEAN_MOTION_DOT = .20105E-3
MEAN_MOTION_DDOT = 0

CCSDS_OMM_VERS = 2.0
CREATION_DATE  = 
ORIGINATOR     = 

OBJECT_NAME    = KUIPER-00275
OBJECT_ID      = 2026-030AF
CENTER_NAME    = EARTH
REF_FRAME      = TEME
TIME_SYSTEM    = UTC
MEAN_ELEMENT_THEORY = SGP/SGP4

EPOCH          = 2026-03-02T00:38:51.612864
MEAN_MOTION    = 15.34361035
ECCENTRICITY   = .0008741
INCLINATION    = 51.8827
RA_OF_ASC_NODE = 256.2148
ARG_OF_PERICENTER = 31.9548
MEAN_ANOMALY   = 328.1967

EPHEMERIS_TYPE = 0
CLASSIFICATION_TYPE = U
NORAD_CAT_ID   = 67793
ELEMENT_SET_NO = 999
REV_AT_EPOCH   = 391
BSTAR          = .96692E-3
MEAN_MOTION_DOT = .32456E-3
MEAN_MOTION_DDOT = 0

CCSDS_OMM_VERS = 2.0
CREATION_DATE  = 
ORIGINATOR     = 

OBJECT_NAME    = KUIPER-00276
OBJECT_ID      = 2026-030AG
CENTER_NAME    = EARTH
REF_FRAME      = TEME
TIME_SYSTEM    = UTC
MEAN_ELEMENT_THEORY = SGP/SGP4

EPOCH          = 2026-03-02T01:16:18.899328
MEAN_MOTION    = 15.31502034
ECCENTRICITY   = .0018226
INCLINATION    = 51.8818
RA_OF_ASC_NODE = 256.3761
ARG_OF_PERICENTER = 43.2938
MEAN_ANOMALY   = 316.9475

EPHEMERIS_TYPE = 0
CLASSIFICATION_TYPE = U
NORAD_CAT_ID   = 67794
ELEMENT_SET_NO = 999
REV_AT_EPOCH   = 391
BSTAR          = .78693E-3
MEAN_MOTION_DOT = .24117E-3
MEAN_MOTION_DDOT = 0

CCSDS_OMM_VERS = 2.0
CREATION_DATE  = 
ORIGINATOR     = 

OBJECT_NAME    = KUIPER-00279
OBJECT_ID      = 2026-030AH
CENTER_NAME    = EARTH
REF_FRAME      = TEME
TIME_SYSTEM    = UTC
MEAN_ELEMENT_THEORY = SGP/SGP4

EPOCH          = 2026-03-02T00:31:12.876384
MEAN_MOTION    = 15.35007361
ECCENTRICITY   = .0006217
INCLINATION    = 51.8788
RA_OF_ASC_NODE = 256.1712
ARG_OF_PERICENTER = 27.1313
MEAN_ANOMALY   = 332.9996

EPHEMERIS_TYPE = 0
CLASSIFICATION_TYPE = U
NORAD_CAT_ID   = 67795
ELEMENT_SET_NO = 999
REV_AT_EPOCH   = 391
BSTAR          = .99036E-3
MEAN_MOTION_DOT = .33937E-3
MEAN_MOTION_DDOT = 0

CCSDS_OMM_VERS = 2.0
CREATION_DATE  = 
ORIGINATOR     = 

OBJECT_NAME    = CREW DRAGON 12
OBJECT_ID      = 2026-031A
CENTER_NAME    = EARTH
REF_FRAME      = TEME
TIME_SYSTEM    = UTC
MEAN_ELEMENT_THEORY = SGP/SGP4

EPOCH          = 2026-03-01T20:00:02.825856
MEAN_MOTION    = 15.48387794
ECCENTRICITY   = .0008284
INCLINATION    = 51.6319
RA_OF_ASC_NODE = 111.1961
ARG_OF_PERICENTER = 147.0223
MEAN_ANOMALY   = 213.1284

EPHEMERIS_TYPE = 0
CLASSIFICATION_TYPE = U
NORAD_CAT_ID   = 67796
ELEMENT_SET_NO = 999
REV_AT_EPOCH   = 55485
BSTAR          = .19089E-3
MEAN_MOTION_DOT = .9867E-4
MEAN_MOTION_DDOT = 0

CCSDS_OMM_VERS = 2.0
CREATION_DATE  = 
ORIGINATOR     = 

OBJECT_NAME    = STARLINK-36800
OBJECT_ID      = 2026-032A
CENTER_NAME    = EARTH
REF_FRAME      = TEME
TIME_SYSTEM    = UTC
MEAN_ELEMENT_THEORY = SGP/SGP4

EPOCH          = 2026-03-02T04:00:01.999584
MEAN_MOTION    = 15.75171535
ECCENTRICITY   = .0001476
INCLINATION    = 97.2852
RA_OF_ASC_NODE = 247.2798
ARG_OF_PERICENTER = 87.8976
MEAN_ANOMALY   = 98.9536

EPHEMERIS_TYPE = 0
CLASSIFICATION_TYPE = U
NORAD_CAT_ID   = 67797
ELEMENT_SET_NO = 999
REV_AT_EPOCH   = 357
BSTAR          = .13929E-3
MEAN_MOTION_DOT = .2068E-3
MEAN_MOTION_DDOT = 0

CCSDS_OMM_VERS = 2.0
CREATION_DATE  = 
ORIGINATOR     = 

OBJECT_NAME    = STARLINK-36798
OBJECT_ID      = 2026-032B
CENTER_NAME    = EARTH
REF_FRAME      = TEME
TIME_SYSTEM    = UTC
MEAN_ELEMENT_THEORY = SGP/SGP4

EPOCH          = 2026-03-02T04:00:01.999584
MEAN_MOTION    = 15.80778044
ECCENTRICITY   = .0001594
INCLINATION    = 97.2854
RA_OF_ASC_NODE = 247.3014
ARG_OF_PERICENTER = 93.7843
MEAN_ANOMALY   = 144.0547

EPHEMERIS_TYPE = 0
CLASSIFICATION_TYPE = U
NORAD_CAT_ID   = 67798
ELEMENT_SET_NO = 999
REV_AT_EPOCH   = 351
BSTAR          = .30381E-3
MEAN_MOTION_DOT = .58341E-3
MEAN_MOTION_DDOT = 0

CCSDS_OMM_VERS = 2.0
CREATION_DATE  = 
ORIGINATOR     = 

OBJECT_NAME    = STARLINK-36804
OBJECT_ID      = 2026-032C
CENTER_NAME    = EARTH
REF_FRAME      = TEME
TIME_SYSTEM    = UTC
MEAN_ELEMENT_THEORY = SGP/SGP4

EPOCH          = 2026-03-02T04:00:01.999584
MEAN_MOTION    = 15.75176364
ECCENTRICITY   = .0001549
INCLINATION    = 97.2852
RA_OF_ASC_NODE = 247.2839
ARG_OF_PERICENTER = 84.6341
MEAN_ANOMALY   = 112.2175

EPHEMERIS_TYPE = 0
CLASSIFICATION_TYPE = U
NORAD_CAT_ID   = 67799
ELEMENT_SET_NO = 999
REV_AT_EPOCH   = 351
BSTAR          = .2444E-4
MEAN_MOTION_DOT = .3515E-4
MEAN_MOTION_DDOT = 0

