KUIPER-00262            
1 67788U 26030AA  26061.00653300  .00028537  00000+0  79964-3 0  9991
2 67788  51.8805 256.0762 0000919 148.8992 211.2049 15.36382828  3911
KUIPER-00266            
1 67789U 26030AB  26061.05872500  .00002611  00000+0  97611-4 0  9997
2 67789  51.8815 256.4056 0023075  50.7411 309.5616 15.30986286  3911
KUIPER-00268            
1 67790U 26030AC  26061.01349971  .00026076  00000+0  74979-3 0  9998
2 67790  51.8835 256.1262 0002118  33.0347 327.0771 15.35623464  3916
KUIPER-00270            
1 67791U 26030AD  26061.02943859  .00032448  00000+0  96862-3 0  9990
2 67791  51.8794 256.2228 0010008  34.5602 325.6032 15.34287069  3911
KUIPER-00274            
1 67792U 26030AE  26061.04927788  .00020105  00000+0  65469-3 0  9992
2 67792  51.8821 256.3537 0017225  47.6812 312.5629 15.31699383  3913
KUIPER-00275            
1 67793U 26030AF  26061.02698626  .00032456  00000+0  96692-3 0  9991
2 67793  51.8827 256.2148 0008741  31.9548 328.1967 15.34361035  3913
KUIPER-00276            
1 67794U 26030AG  26061.05299652  .00024117  00000+0  78693-3 0  9997
2 67794  51.8818 256.3761 0018226  43.2938 316.9475 15.31502034  3916
KUIPER-00279            
1 67795U 26030AH  26061.02167681  .00033937  00000+0  99036-3 0  9995
2 67795  51.8788 256.1712 0006217  27.1313 332.9996 15.35007361  3915
CREW DRAGON 12          
1 67796U 26031A   26060.83336604  .00009867  00000+0  19089-3 0  9993
2 67796  51.6319 111.1961 0008284 147.0223 213.1284 15.48387794554857
STARLINK-36800          
1 67797U 26032A   26061.16668981  .00020680  00000+0  13929-3 0  9991
2 67797  97.2852 247.2798 0001476  87.8976  98.9536 15.75171535  3578
STARLINK-36798          
1 67798U 26032B   26061.16668981  .00058341  00000+0  30381-3 0  9998
2 67798  97.2854 247.3014 0001594  93.7843 144.0547 15.80778044  3516
STARLINK-36804          
1 67799U 26032C   26061.16668981  .00003515  00000+0  24440-4 0  9992
2 67799  97.2852 247.2839 0001549  84.6341 112.2175 15.75176364  3516
